GLOBALSTAR M024 [-]     
1 25883U 99043A   24036.48371054 -.00000057  00000+0  27300-3 0  9995
2 25883  52.0017  63.6003 0001153  11.5849 165.4569 11.10153566 59581
GLOBALSTAR M027 [-]     
1 25884U 99043B   24036.49563395 -.00000029  00000+0  13037-2 0  9998
2 25884  52.0208 127.4596 0020732 266.0505  93.7918 11.04367245 86259
GLOBALSTAR M054 [-]     
1 25885U 99043C   24036.01449851 -.00000001  00000+0  17871-2 0  9997
2 25885  52.0176 339.4313 0004832  38.1711  43.3475 11.39204936 62276
GLOBALSTAR M053 [-]     
1 25886U 99043D   24036.88790177 -.00000039  00000+0  85615-3 0  9996
2 25886  51.9959 256.8475 0003021 336.7117 121.4450 11.27653661 63341
GLOBALSTAR M058 [-]     
1 25907U 99049A   24036.28837550 -.00000073  00000+0  15049-3 0  9999
2 25907  51.9974 358.6653 0002631  36.7723 323.3292 11.93173435482102
GLOBALSTAR M050 [-]     
1 25908U 99049B   24036.27084053 -.00000132  00000+0 -49132-3 0  9998
2 25908  52.0005  43.5854 0009252 120.1409 252.3605 12.07429052 88047
GLOBALSTAR M033 [-]     
1 25909U 99049C   24036.90966079 -.00000031  00000+0  58643-3 0  9990
2 25909  51.9929 308.0178 0011580 332.7563  27.2676 12.20266309475033
GLOBALSTAR M055 [-]     
1 25910U 99049D   24036.12223601 -.00000080  00000+0  12162-3 0  9993
2 25910  52.0051 345.2146 0006781 174.5441 185.5485 12.29394400107025
